{"type": "FeatureCollection", "features": [ {"type": "Feature", "properties": {"norad_id": 40938, "name": "BEIDOU-3S IGSO-2S (C56)", "group": "gnss", "lat": 42.127325350393455, "lon": -48.574531268277866, "alt_km": 35935.59667922309, "timestamp": "2025-12-14T09:36:23.279273+00:00", "meta": {"OBJECT_NAME": "BEIDOU-3S IGSO-2S (C56)", "OBJECT_ID": "2015-053A", "EPOCH": "2025-12-12T17:40:22.230624", "MEAN_MOTION": 1.00269795, "ECCENTRICITY": 0.00608697, "INCLINATION": 49.5105, "RA_OF_ASC_NODE": 261.0048, "ARG_OF_PERICENTER": 188.8005, "MEAN_ANOMALY": 352.9764, "EPHEMERIS_TYPE": 0, "CLASSIFICATION_TYPE": "U", "NORAD_CAT_ID": 40938, "ELEMENT_SET_NO": 999, "REV_AT_EPOCH": 3748, "BSTAR": 0, "MEAN_MOTION_DOT": -1.58e-06, "MEAN_MOTION_DDOT": 0}, "tle": {"line1": "1 40938U 15053A   25346.73636841 -.00000158  00000+0  00000+0 0  9999", "line2": "2 40938  49.5105 261.0048 0060869 188.8005 352.9764  1.00269795 37487"}}, "geometry": {"type": "Point", "coordinates": [-48.574531268277866, 42.127325350393455]}}, {"type": "Feature", "properties": {"norad_id": 41019, "name": "GPS BIIF-11 (PRN 10)", "group": "gnss", "lat": 50.39948484066716, "lon": 90.12208664236348, "alt_km": 20457.737210356117, "timestamp": "2025-12-14T09:36:23.279284+00:00", "meta": {"OBJECT_NAME": "GPS BIIF-11 (PRN 10)", "OBJECT_ID": "2015-062A", "EPOCH": "2025-12-12T19:26:17.014560", "MEAN_MOTION": 2.00567164, "ECCENTRICITY": 0.01108438, "INCLINATION": 56.8322, "RA_OF_ASC_NODE": 37.9995, "ARG_OF_PERICENTER": 229.9503, "MEAN_ANOMALY": 129.1214, "EPHEMERIS_TYPE": 0, "CLASSIFICATION_TYPE": "U", "NORAD_CAT_ID": 41019, "ELEMENT_SET_NO": 999, "REV_AT_EPOCH": 7409, "BSTAR": 0, "MEAN_MOTION_DOT": -9.6e-07, "MEAN_MOTION_DDOT": 0}, "tle": {"line1": "1 41019U 15062A   25346.80991915 -.00000096  00000+0  00000+0 0  9995", "line2": "2 41019  56.8322  37.9995 0110843 229.9503 129.1214  2.00567164 74093"}}, "geometry": {"type": "Point", "coordinates": [90.12208664236348, 50.39948484066716]}}, {"type": "Feature", "properties": {"norad_id": 41028, "name": "GSAT-15 (GAGAN/PRN 139)", "group": "gnss", "lat": 0.02951478801415424, "lon": -39.060317837895575, "alt_km": 35786.43375654336, "timestamp": "2025-12-14T09:36:23.279296+00:00", "meta": {"OBJECT_NAME": "GSAT-15 (GAGAN/PRN 139)", "OBJECT_ID": "2015-065A", "EPOCH": "2025-12-13T15:36:23.367744", "MEAN_MOTION": 1.00271775, "ECCENTRICITY": 0.00028387, "INCLINATION": 0.0434, "RA_OF_ASC_NODE": 266.4186, "ARG_OF_PERICENTER": 322.9513, "MEAN_ANOMALY": 180.808, "EPHEMERIS_TYPE": 0, "CLASSIFICATION_TYPE": "U", "NORAD_CAT_ID": 41028, "ELEMENT_SET_NO": 999, "REV_AT_EPOCH": 3693, "BSTAR": 0, "MEAN_MOTION_DOT": -2.42e-06, "MEAN_MOTION_DDOT": 0}, "tle": {"line1": "1 41028U 15065A   25347.65027046 -.00000242  00000+0  00000+0 0  9990", "line2": "2 41028   0.0434 266.4186 0002838 322.9513 180.8080  1.00271775 36933"}}, "geometry": {"type": "Point", "coordinates": [-39.060317837895575, 0.02951478801415424]}}, {"type": "Feature", "properties": {"norad_id": 41174, "name": "GSAT0209 (GALILEO 12)", "group": "gnss", "lat": 55.12114703720883, "lon": -175.7529645260557, "alt_km": 23215.983987151907, "timestamp": "2025-12-14T09:36:23.279310+00:00", "meta": {"OBJECT_NAME": "GSAT0209 (GALILEO 12)", "OBJECT_ID": "2015-079A", "EPOCH": "2025-12-10T17:53:22.611840", "MEAN_MOTION": 1.70474458, "ECCENTRICITY": 0.00024095, "INCLINATION": 55.7117, "RA_OF_ASC_NODE": 106.4357, "ARG_OF_PERICENTER": 351.4479, "MEAN_ANOMALY": 8.5179, "EPHEMERIS_TYPE": 0, "CLASSIFICATION_TYPE": "U", "NORAD_CAT_ID": 41174, "ELEMENT_SET_NO": 999, "REV_AT_EPOCH": 6156, "BSTAR": 0, "MEAN_MOTION_DOT": 1.1e-07, "MEAN_MOTION_DDOT": 0}, "tle": {"line1": "1 41174U 15079A   25344.74540060  .00000011  00000+0  00000+0 0  9993", "line2": "2 41174  55.7117 106.4357 0002409 351.4479   8.5179  1.70474458 61567"}}, "geometry": {"type": "Point", "coordinates": [-175.7529645260557, 55.12114703720883]}}, {"type": "Feature", "properties": {"norad_id": 41175, "name": "GSAT0208 (GALILEO 11)", "group": "gnss", "lat": -40.654279683253755, "lon": 70.48897404021339, "alt_km": 23223.424218069486, "timestamp": "2025-12-14T09:36:23.279321+00:00", "meta": {"OBJECT_NAME": "GSAT0208 (GALILEO 11)", "OBJECT_ID": "2015-079B", "EPOCH": "2025-12-12T17:24:26.771040", "MEAN_MOTION": 1.70474307, "ECCENTRICITY": 0.00018806, "INCLINATION": 55.7111, "RA_OF_ASC_NODE": 106.3784, "ARG_OF_PERICENTER": 358.3144, "MEAN_ANOMALY": 1.6545, "EPHEMERIS_TYPE": 0, "CLASSIFICATION_TYPE": "U", "NORAD_CAT_ID": 41175, "ELEMENT_SET_NO": 999, "REV_AT_EPOCH": 6201, "BSTAR": 0, "MEAN_MOTION_DOT": 4e-08, "MEAN_MOTION_DDOT": 0}, "tle": {"line1": "1 41175U 15079B   25346.72530985  .00000004  00000+0  00000+0 0  9991", "line2": "2 41175  55.7111 106.3784 0001880 358.3144   1.6545  1.70474307 62017"}}, "geometry": {"type": "Point", "coordinates": [70.48897404021339, -40.654279683253755]}}, {"type": "Feature", "properties": {"norad_id": 41241, "name": "IRNSS-1E", "group": "gnss", "lat": -32.57341766843538, "lon": -19.200039972640624, "alt_km": 35788.45626272438, "timestamp": "2025-12-14T09:36:23.279332+00:00", "meta": {"OBJECT_NAME": "IRNSS-1E", "OBJECT_ID": "2016-003A", "EPOCH": "2025-12-12T20:06:57.569184", "MEAN_MOTION": 1.00273817, "ECCENTRICITY": 0.00218004, "INCLINATION": 32.8255, "RA_OF_ASC_NODE": 62.4521, "ARG_OF_PERICENTER": 187.6915, "MEAN_ANOMALY": 245.1684, "EPHEMERIS_TYPE": 0, "CLASSIFICATION_TYPE": "U", "NORAD_CAT_ID": 41241, "ELEMENT_SET_NO": 999, "REV_AT_EPOCH": 3621, "BSTAR": 0, "MEAN_MOTION_DOT": -3.05e-06, "MEAN_MOTION_DDOT": 0}, "tle": {"line1": "1 41241U 16003A   25346.83816631 -.00000305  00000+0  00000+0 0  9995", "line2": "2 41241  32.8255  62.4521 0021800 187.6915 245.1684  1.00273817 36218"}}, "geometry": {"type": "Point", "coordinates": [-19.200039972640624, -32.57341766843538]}}, {"type": "Feature", "properties": {"norad_id": 41328, "name": "GPS BIIF-12 (PRN 32)", "group": "gnss", "lat": 7.102924745488835, "lon": 101.71150717300824, "alt_km": 20321.03734586049, "timestamp": "2025-12-14T09:36:23.279344+00:00", "meta": {"OBJECT_NAME": "GPS BIIF-12 (PRN 32)", "OBJECT_ID": "2016-007A", "EPOCH": "2025-12-13T09:23:04.524576", "MEAN_MOTION": 2.00560713, "ECCENTRICITY": 0.00921862, "INCLINATION": 55.4066, "RA_OF_ASC_NODE": 96.8311, "ARG_OF_PERICENTER": 243.5856, "MEAN_ANOMALY": 115.4531, "EPHEMERIS_TYPE": 0, "CLASSIFICATION_TYPE": "U", "NORAD_CAT_ID": 41328, "ELEMENT_SET_NO": 999, "REV_AT_EPOCH": 7211, "BSTAR": 0, "MEAN_MOTION_DOT": -1.9e-07, "MEAN_MOTION_DDOT": 0}, "tle": {"line1": "1 41328U 16007A   25347.39102459 -.00000019  00000+0  00000+0 0  9995", "line2": "2 41328  55.4066  96.8311 0092186 243.5856 115.4531  2.00560713 72118"}}, "geometry": {"type": "Point", "coordinates": [101.71150717300824, 7.102924745488835]}}, {"type": "Feature", "properties": {"norad_id": 41330, "name": "COSMOS 2514 (751)", "group": "gnss", "lat": 2.5655202862773123, "lon": -39.473510639052435, "alt_km": 19154.510166444365, "timestamp": "2025-12-14T09:36:23.279355+00:00", "meta": {"OBJECT_NAME": "COSMOS 2514 (751)", "OBJECT_ID": "2016-008A", "EPOCH": "2025-12-13T10:59:36.135168", "MEAN_MOTION": 2.13102653, "ECCENTRICITY": 0.00120642, "INCLINATION": 65.1334, "RA_OF_ASC_NODE": 319.3793, "ARG_OF_PERICENTER": 220.0894, "MEAN_ANOMALY": 139.82, "EPHEMERIS_TYPE": 0, "CLASSIFICATION_TYPE": "U", "NORAD_CAT_ID": 41330, "ELEMENT_SET_NO": 999, "REV_AT_EPOCH": 7666, "BSTAR": 0, "MEAN_MOTION_DOT": -6.2e-07, "MEAN_MOTION_DDOT": 0}, "tle": {"line1": "1 41330U 16008A   25347.45805712 -.00000062  00000+0  00000+0 0  9996", "line2": "2 41330  65.1334 319.3793 0012064 220.0894 139.8200  2.13102653 76669"}}, "geometry": {"type": "Point", "coordinates": [-39.473510639052435, 2.5655202862773123]}}, {"type": "Feature", "properties": {"norad_id": 41384, "name": "IRNSS-1F", "group": "gnss", "lat": 1.7715390086767144, "lon": -100.24401784025014, "alt_km": 35696.982458220744, "timestamp": "2025-12-14T09:36:23.279368+00:00", "meta": {"OBJECT_NAME": "IRNSS-1F", "OBJECT_ID": "2016-015A", "EPOCH": "2025-12-13T13:36:12.377952", "MEAN_MOTION": 1.00272968, "ECCENTRICITY": 0.00225824, "INCLINATION": 4.8827, "RA_OF_ASC_NODE": 101.2797, "ARG_OF_PERICENTER": 180.7759, "MEAN_ANOMALY": 36.8575, "EPHEMERIS_TYPE": 0, "CLASSIFICATION_TYPE": "U", "NORAD_CAT_ID": 41384, "ELEMENT_SET_NO": 999, "REV_AT_EPOCH": 3580, "BSTAR": 0, "MEAN_MOTION_DOT": 1.73e-06, "MEAN_MOTION_DDOT": 0}, "tle": {"line1": "1 41384U 16015A   25347.56680993  .00000173  00000+0  00000+0 0  9999", "line2": "2 41384   4.8827 101.2797 0022582 180.7759  36.8575  1.00272968 35809"}}, "geometry": {"type": "Point", "coordinates": [-100.24401784025014, 1.7715390086767144]}}, {"type": "Feature", "properties": {"norad_id": 41434, "name": "BEIDOU-2 IGSO-6 (C13)", "group": "gnss", "lat": -58.184393876303496, "lon": -28.707209995602025, "alt_km": 35624.33774062332, "timestamp": "2025-12-14T09:36:23.279380+00:00", "meta": {"OBJECT_NAME": "BEIDOU-2 IGSO-6 (C13)", "OBJECT_ID": "2016-021A", "EPOCH": "2025-12-11T15:29:12.615360", "MEAN_MOTION": 1.00293077, "ECCENTRICITY": 0.00608616, "INCLINATION": 59.9644, "RA_OF_ASC_NODE": 39.9082, "ARG_OF_PERICENTER": 229.9753, "MEAN_ANOMALY": 135.9177, "EPHEMERIS_TYPE": 0, "CLASSIFICATION_TYPE": "U", "NORAD_CAT_ID": 41434, "ELEMENT_SET_NO": 999, "REV_AT_EPOCH": 3560, "BSTAR": 0, "MEAN_MOTION_DOT": -1.62e-06, "MEAN_MOTION_DDOT": 0}, "tle": {"line1": "1 41434U 16021A   25345.64528490 -.00000162  00000+0  00000+0 0  9991", "line2": "2 41434  59.9644  39.9082 0060861 229.9753 135.9177  1.00293077 35600"}}, "geometry": {"type": "Point", "coordinates": [-28.707209995602025, -58.184393876303496]}}]}